[{"OBJECT_NAME":"KHALIFASAT","OBJECT_ID":"2018-084F","EPOCH":"2026-03-09T22:37:07.705056","MEAN_MOTION":15.0097364,"ECCENTRICITY":0.00062701,"INCLINATION":98.0864,"RA_OF_ASC_NODE":247.4233,"ARG_OF_PERICENTER":83.8573,"MEAN_ANOMALY":276.3364,"EPHEMERIS_TYPE":0,"CLASSIFICATION_TYPE":"U","NORAD_CAT_ID":43676,"ELEMENT_SET_NO":999,"REV_AT_EPOCH":40088,"BSTAR":0.00043724412,"MEAN_MOTION_DOT":5.516e-5,"MEAN_MOTION_DDOT":0},{"OBJECT_NAME":"STARLINK-5224","OBJECT_ID":"2023-014G","EPOCH":"2026-03-09T22:49:25.675104","MEAN_MOTION":14.98330577,"ECCENTRICITY":0.00030454,"INCLINATION":70.0006,"RA_OF_ASC_NODE":43.9524,"ARG_OF_PERICENTER":269.1917,"MEAN_ANOMALY":90.8893,"EPHEMERIS_TYPE":0,"CLASSIFICATION_TYPE":"U","NORAD_CAT_ID":55397,"ELEMENT_SET_NO":999,"REV_AT_EPOCH":17258,"BSTAR":-3.322339e-6,"MEAN_MOTION_DOT":-1.33e-6,"MEAN_MOTION_DDOT":0}]
